[{"OBJECT_NAME":"NEXSAT-1","OBJECT_ID":"2024-024E","EPOCH":"2026-03-09T22:47:24.778176","MEAN_MOTION":15.32166372,"ECCENTRICITY":0.00099795,"INCLINATION":97.3124,"RA_OF_ASC_NODE":144.1918,"ARG_OF_PERICENTER":108.5709,"MEAN_ANOMALY":251.6617,"EPHEMERIS_TYPE":0,"CLASSIFICATION_TYPE":"U","NORAD_CAT_ID":58921,"ELEMENT_SET_NO":999,"REV_AT_EPOCH":11669,"BSTAR":0.00031433612,"MEAN_MOTION_DOT":9.702e-5,"MEAN_MOTION_DDOT":0},{"OBJECT_NAME":"STARLINK-35140","OBJECT_ID":"2025-198K","EPOCH":"2026-03-09T19:49:39.823104","MEAN_MOTION":15.30197411,"ECCENTRICITY":9.481e-5,"INCLINATION":53.1588,"RA_OF_ASC_NODE":270.1745,"ARG_OF_PERICENTER":84.2458,"MEAN_ANOMALY":275.865,"EPHEMERIS_TYPE":0,"CLASSIFICATION_TYPE":"U","NORAD_CAT_ID":65501,"ELEMENT_SET_NO":999,"REV_AT_EPOCH":2864,"BSTAR":0.00070378302,"MEAN_MOTION_DOT":0.00020541,"MEAN_MOTION_DDOT":0}]
